ASTROCAST-0403          
1 55111U 23001DG  26068.82333059  .00013959  00000+0  51317-3 0  9990
2 55111  97.5604 161.3228 0004771 338.0704  22.0330 15.28004949129377
STARLINK-31797          
1 59634U 24082D   26068.56394912 -.00000453  00000+0 -69527-5 0  9991
2 59634  43.0006 140.4405 0001214 261.4726  98.5988 15.27570618104831
